{
  "type": "FeatureCollection",
  "features": [
    {
      "type": "Feature",
      "properties": {
        "norad_id": 30199,
        "name": "FENGYUN 1C DEB",
        "group": "fengyun-1c-debris",
        "lat": 8.05955239802772,
        "lon": 0.8909034043443239,
        "alt_km": 718.9106957319918,
        "timestamp": "2025-12-04T03:47:54.817873+00:00",
        "meta_object_name": "FENGYUN 1C DEB",
        "meta_object_id": "1999-025VG",
        "meta_epoch": "2025-12-03T01:23:23.229600",
        "meta_mean_motion": 14.38417197,
        "meta_eccentricity": 0.00781285,
        "meta_inclination": 98.3859,
        "meta_ra_of_asc_node": 1.013,
        "meta_arg_of_pericenter": 337.995,
        "meta_mean_anomaly": 95.03,
        "meta_ephemeris_type": 0,
        "meta_classification_type": "U",
        "meta_norad_cat_id": 30199,
        "meta_element_set_no": 999,
        "meta_rev_at_epoch": 98271,
        "meta_bstar": 0.0013115075,
        "meta_mean_motion_dot": 4.102e-05,
        "meta_mean_motion_ddot": 0,
        "tle_line1": "1 30199U 99025VG  25337.05790775  .00004102  00000+0  13115-2 0  9996",
        "tle_line2": "2 30199  98.3859   1.0130 0078128 337.9950  95.0300 14.38417197982712"
      },
      "geometry": {
        "type": "Point",
        "coordinates": [
          0.8909034043443239,
          8.05955239802772
        ]
      }
    },
    {
      "type": "Feature",
      "properties": {
        "norad_id": 30200,
        "name": "FENGYUN 1C DEB",
        "group": "fengyun-1c-debris",
        "lat": 58.679423065839785,
        "lon": 7.916500159634178,
        "alt_km": 706.0894377502318,
        "timestamp": "2025-12-04T03:47:54.817882+00:00",
        "meta_object_name": "FENGYUN 1C DEB",
        "meta_object_id": "1999-025VH",
        "meta_epoch": "2025-12-03T12:02:47.821632",
        "meta_mean_motion": 14.22265285,
        "meta_eccentricity": 0.0147415,
        "meta_inclination": 99.1134,
        "meta_ra_of_asc_node": 171.9431,
        "meta_arg_of_pericenter": 125.5269,
        "meta_mean_anomaly": 235.9758,
        "meta_ephemeris_type": 0,
        "meta_classification_type": "U",
        "meta_norad_cat_id": 30200,
        "meta_element_set_no": 999,
        "meta_rev_at_epoch": 97851,
        "meta_bstar": 0.0002214,
        "meta_mean_motion_dot": 5.03e-06,
        "meta_mean_motion_ddot": 0,
        "tle_line1": "1 30200U 99025VH  25337.50194238  .00000503  00000+0  22140-3 0  9991",
        "tle_line2": "2 30200  99.1134 171.9431 0147415 125.5269 235.9758 14.22265285978518"
      },
      "geometry": {
        "type": "Point",
        "coordinates": [
          7.916500159634178,
          58.679423065839785
        ]
      }
    },
    {
      "type": "Feature",
      "properties": {
        "norad_id": 30201,
        "name": "FENGYUN 1C DEB",
        "group": "fengyun-1c-debris",
        "lat": 10.090111565665676,
        "lon": 110.10800964191584,
        "alt_km": 799.489724394658,
        "timestamp": "2025-12-04T03:47:54.817892+00:00",
        "meta_object_name": "FENGYUN 1C DEB",
        "meta_object_id": "1999-025VJ",
        "meta_epoch": "2025-12-02T21:22:25.867488",
        "meta_mean_motion": 14.22908745,
        "meta_eccentricity": 0.00288934,
        "meta_inclination": 99.4007,
        "meta_ra_of_asc_node": 110.4453,
        "meta_arg_of_pericenter": 341.2921,
        "meta_mean_anomaly": 18.7191,
        "meta_ephemeris_type": 0,
        "meta_classification_type": "U",
        "meta_norad_cat_id": 30201,
        "meta_element_set_no": 999,
        "meta_rev_at_epoch": 97687,
        "meta_bstar": 0.00057545116,
        "meta_mean_motion_dot": 1.249e-05,
        "meta_mean_motion_ddot": 0,
        "tle_line1": "1 30201U 99025VJ  25336.89057717  .00001249  00000+0  57545-3 0  9998",
        "tle_line2": "2 30201  99.4007 110.4453 0028893 341.2921  18.7191 14.22908745976873"
      },
      "geometry": {
        "type": "Point",
        "coordinates": [
          110.10800964191584,
          10.090111565665676
        ]
      }
    },
    {
      "type": "Feature",
      "properties": {
        "norad_id": 30202,
        "name": "FENGYUN 1C DEB",
        "group": "fengyun-1c-debris",
        "lat": 13.981905972677712,
        "lon": -102.63147428251128,
        "alt_km": 714.8498719049194,
        "timestamp": "2025-12-04T03:47:54.817902+00:00",
        "meta_object_name": "FENGYUN 1C DEB",
        "meta_object_id": "1999-025VK",
        "meta_epoch": "2025-12-03T05:32:35.030400",
        "meta_mean_motion": 14.52075504,
        "meta_eccentricity": 0.0039705,
        "meta_inclination": 98.6412,
        "meta_ra_of_asc_node": 74.2447,
        "meta_arg_of_pericenter": 88.397,
        "meta_mean_anomaly": 272.1771,
        "meta_ephemeris_type": 0,
        "meta_classification_type": "U",
        "meta_norad_cat_id": 30202,
        "meta_element_set_no": 999,
        "meta_rev_at_epoch": 98151,
        "meta_bstar": 0.0031256,
        "meta_mean_motion_dot": 0.0001275,
        "meta_mean_motion_ddot": 0,
        "tle_line1": "1 30202U 99025VK  25337.23096100  .00012750  00000+0  31256-2 0  9996",
        "tle_line2": "2 30202  98.6412  74.2447 0039705  88.3970 272.1771 14.52075504981510"
      },
      "geometry": {
        "type": "Point",
        "coordinates": [
          -102.63147428251128,
          13.981905972677712
        ]
      }
    },
    {
      "type": "Feature",
      "properties": {
        "norad_id": 30205,
        "name": "FENGYUN 1C DEB",
        "group": "fengyun-1c-debris",
        "lat": 38.21601501600954,
        "lon": 82.6316050319618,
        "alt_km": 1017.4620511901094,
        "timestamp": "2025-12-04T03:47:54.817912+00:00",
        "meta_object_name": "FENGYUN 1C DEB",
        "meta_object_id": "1999-025VN",
        "meta_epoch": "2025-12-03T06:56:17.971296",
        "meta_mean_motion": 13.88027619,
        "meta_eccentricity": 0.0120651,
        "meta_inclination": 98.9968,
        "meta_ra_of_asc_node": 88.9595,
        "meta_arg_of_pericenter": 205.3942,
        "meta_mean_anomaly": 173.0161,
        "meta_ephemeris_type": 0,
        "meta_classification_type": "U",
        "meta_norad_cat_id": 30205,
        "meta_element_set_no": 999,
        "meta_rev_at_epoch": 95507,
        "meta_bstar": 0.00052552,
        "meta_mean_motion_dot": 6.21e-06,
        "meta_mean_motion_ddot": 0,
        "tle_line1": "1 30205U 99025VN  25337.28909689  .00000621  00000+0  52552-3 0  9996",
        "tle_line2": "2 30205  98.9968  88.9595 0120651 205.3942 173.0161 13.88027619955075"
      },
      "geometry": {
        "type": "Point",
        "coordinates": [
          82.6316050319618,
          38.21601501600954
        ]
      }
    },
    {
      "type": "Feature",
      "properties": {
        "norad_id": 30206,
        "name": "FENGYUN 1C DEB",
        "group": "fengyun-1c-debris",
        "lat": -62.502699438392455,
        "lon": 141.48170794238285,
        "alt_km": 839.9098680314546,
        "timestamp": "2025-12-04T03:47:54.817923+00:00",
        "meta_object_name": "FENGYUN 1C DEB",
        "meta_object_id": "1999-025VP",
        "meta_epoch": "2025-12-02T22:30:44.908992",
        "meta_mean_motion": 14.4909082,
        "meta_eccentricity": 0.01465432,
        "meta_inclination": 98.2311,
        "meta_ra_of_asc_node": 336.4376,
        "meta_arg_of_pericenter": 66.1014,
        "meta_mean_anomaly": 295.5454,
        "meta_ephemeris_type": 0,
        "meta_classification_type": "U",
        "meta_norad_cat_id": 30206,
        "meta_element_set_no": 999,
        "meta_rev_at_epoch": 99259,
        "meta_bstar": 0.00057072954,
        "meta_mean_motion_dot": 2.438e-05,
        "meta_mean_motion_ddot": 0,
        "tle_line1": "1 30206U 99025VP  25336.93801978  .00002438  00000+0  57073-3 0  9991",
        "tle_line2": "2 30206  98.2311 336.4376 0146543  66.1014 295.5454 14.49090820992595"
      },
      "geometry": {
        "type": "Point",
        "coordinates": [
          141.48170794238285,
          -62.502699438392455
        ]
      }
    },
    {
      "type": "Feature",
      "properties": {
        "norad_id": 30207,
        "name": "FENGYUN 1C DEB",
        "group": "fengyun-1c-debris",
        "lat": -33.87044839141006,
        "lon": -96.14849508298644,
        "alt_km": 830.2917481388877,
        "timestamp": "2025-12-04T03:47:54.817933+00:00",
        "meta_object_name": "FENGYUN 1C DEB",
        "meta_object_id": "1999-025VQ",
        "meta_epoch": "2025-12-03T07:57:24.710400",
        "meta_mean_motion": 13.79124285,
        "meta_eccentricity": 0.0260237,
        "meta_inclination": 98.574,
        "meta_ra_of_asc_node": 88.9142,
        "meta_arg_of_pericenter": 173.7657,
        "meta_mean_anomaly": 256.0565,
        "meta_ephemeris_type": 0,
        "meta_classification_type": "U",
        "meta_norad_cat_id": 30207,
        "meta_element_set_no": 999,
        "meta_rev_at_epoch": 94933,
        "meta_bstar": 0.0004638,
        "meta_mean_motion_dot": 5.74e-06,
        "meta_mean_motion_ddot": 0,
        "tle_line1": "1 30207U 99025VQ  25337.33153600  .00000574  00000+0  46380-3 0  9997",
        "tle_line2": "2 30207  98.5740  88.9142 0260237 173.7657 256.0565 13.79124285949334"
      },
      "geometry": {
        "type": "Point",
        "coordinates": [
          -96.14849508298644,
          -33.87044839141006
        ]
      }
    }
  ]
}